{
  "type": "FeatureCollection",
  "features": [
    {
      "type": "Feature",
      "properties": {
        "norad_id": 33765,
        "name": "COSMOS 2251 DEB",
        "group": "cosmos-2251-debris",
        "lat": -26.805994838801997,
        "lon": -173.65375097918982,
        "alt_km": 510.5560645996975,
        "timestamp": "2025-12-02T07:10:09.508708+00:00",
        "meta_object_name": "COSMOS 2251 DEB",
        "meta_object_id": "1993-036N",
        "meta_epoch": "2025-12-01T15:38:36.504096",
        "meta_mean_motion": 15.08890871,
        "meta_eccentricity": 0.00681816,
        "meta_inclination": 74.0114,
        "meta_ra_of_asc_node": 196.0108,
        "meta_arg_of_pericenter": 290.0739,
        "meta_mean_anomaly": 128.9566,
        "meta_ephemeris_type": 0,
        "meta_classification_type": "U",
        "meta_norad_cat_id": 33765,
        "meta_element_set_no": 999,
        "meta_rev_at_epoch": 89451,
        "meta_bstar": 0.0021422494,
        "meta_mean_motion_dot": 0.00035793,
        "meta_mean_motion_ddot": 0,
        "tle_line1": "1 33765U 93036N   25335.65181139  .00035793  00000+0  21422-2 0  9996",
        "tle_line2": "2 33765  74.0114 196.0108 0068181 290.0739 128.9566 15.08890871894513"
      },
      "geometry": {
        "type": "Point",
        "coordinates": [
          -173.65375097918982,
          -26.805994838801997
        ]
      }
    },
    {
      "type": "Feature",
      "properties": {
        "norad_id": 33766,
        "name": "COSMOS 2251 DEB",
        "group": "cosmos-2251-debris",
        "lat": 67.7003066591987,
        "lon": -69.7817135788017,
        "alt_km": 780.4948969315219,
        "timestamp": "2025-12-02T07:10:09.508718+00:00",
        "meta_object_name": "COSMOS 2251 DEB",
        "meta_object_id": "1993-036P",
        "meta_epoch": "2025-12-01T18:58:04.757376",
        "meta_mean_motion": 14.34882776,
        "meta_eccentricity": 0.0063595,
        "meta_inclination": 74.1843,
        "meta_ra_of_asc_node": 154.8611,
        "meta_arg_of_pericenter": 1.3404,
        "meta_mean_anomaly": 358.7907,
        "meta_ephemeris_type": 0,
        "meta_classification_type": "U",
        "meta_norad_cat_id": 33766,
        "meta_element_set_no": 999,
        "meta_rev_at_epoch": 87588,
        "meta_bstar": 0.00047358,
        "meta_mean_motion_dot": 1.352e-05,
        "meta_mean_motion_ddot": 0,
        "tle_line1": "1 33766U 93036P   25335.79033284  .00001352  00000+0  47358-3 0  9990",
        "tle_line2": "2 33766  74.1843 154.8611 0063595   1.3404 358.7907 14.34882776875885"
      },
      "geometry": {
        "type": "Point",
        "coordinates": [
          -69.7817135788017,
          67.7003066591987
        ]
      }
    },
    {
      "type": "Feature",
      "properties": {
        "norad_id": 33768,
        "name": "COSMOS 2251 DEB",
        "group": "cosmos-2251-debris",
        "lat": 22.14847813490675,
        "lon": -116.60709140412837,
        "alt_km": 776.2747576024285,
        "timestamp": "2025-12-02T07:10:09.508728+00:00",
        "meta_object_name": "COSMOS 2251 DEB",
        "meta_object_id": "1993-036R",
        "meta_epoch": "2025-12-01T20:45:58.963392",
        "meta_mean_motion": 13.58440013,
        "meta_eccentricity": 0.0365779,
        "meta_inclination": 74.0687,
        "meta_ra_of_asc_node": 237.4159,
        "meta_arg_of_pericenter": 37.5657,
        "meta_mean_anomaly": 27.6095,
        "meta_ephemeris_type": 0,
        "meta_classification_type": "U",
        "meta_norad_cat_id": 33768,
        "meta_element_set_no": 999,
        "meta_rev_at_epoch": 83148,
        "meta_bstar": 0.00038626,
        "meta_mean_motion_dot": 4.15e-06,
        "meta_mean_motion_ddot": 0,
        "tle_line1": "1 33768U 93036R   25335.86526578  .00000415  00000+0  38626-3 0  9990",
        "tle_line2": "2 33768  74.0687 237.4159 0365779  37.5657  27.6095 13.58440013831484"
      },
      "geometry": {
        "type": "Point",
        "coordinates": [
          -116.60709140412837,
          22.14847813490675
        ]
      }
    },
    {
      "type": "Feature",
      "properties": {
        "norad_id": 33779,
        "name": "COSMOS 2251 DEB",
        "group": "cosmos-2251-debris",
        "lat": -17.752238537549147,
        "lon": 16.21758846738252,
        "alt_km": 654.117832445143,
        "timestamp": "2025-12-02T07:10:09.508739+00:00",
        "meta_object_name": "COSMOS 2251 DEB",
        "meta_object_id": "1993-036U",
        "meta_epoch": "2025-12-01T15:50:24.849312",
        "meta_mean_motion": 14.70122442,
        "meta_eccentricity": 0.00179787,
        "meta_inclination": 74.0446,
        "meta_ra_of_asc_node": 192.1998,
        "meta_arg_of_pericenter": 227.8017,
        "meta_mean_anomaly": 191.7221,
        "meta_ephemeris_type": 0,
        "meta_classification_type": "U",
        "meta_norad_cat_id": 33779,
        "meta_element_set_no": 999,
        "meta_rev_at_epoch": 88365,
        "meta_bstar": 0.001079055,
        "meta_mean_motion_dot": 6.48e-05,
        "meta_mean_motion_ddot": 0,
        "tle_line1": "1 33779U 93036U   25335.66000983  .00006480  00000+0  10791-2 0  9997",
        "tle_line2": "2 33779  74.0446 192.1998 0017978 227.8017 191.7221 14.70122442883654"
      },
      "geometry": {
        "type": "Point",
        "coordinates": [
          16.21758846738252,
          -17.752238537549147
        ]
      }
    },
    {
      "type": "Feature",
      "properties": {
        "norad_id": 33782,
        "name": "COSMOS 2251 DEB",
        "group": "cosmos-2251-debris",
        "lat": 0.3767530319811088,
        "lon": -63.03536687692726,
        "alt_km": 745.3230292754906,
        "timestamp": "2025-12-02T07:10:09.508749+00:00",
        "meta_object_name": "COSMOS 2251 DEB",
        "meta_object_id": "1993-036X",
        "meta_epoch": "2025-12-01T08:31:53.489280",
        "meta_mean_motion": 14.40393615,
        "meta_eccentricity": 0.00202503,
        "meta_inclination": 74.0326,
        "meta_ra_of_asc_node": 298.6004,
        "meta_arg_of_pericenter": 5.4732,
        "meta_mean_anomaly": 145.9177,
        "meta_ephemeris_type": 0,
        "meta_classification_type": "U",
        "meta_norad_cat_id": 33782,
        "meta_element_set_no": 999,
        "meta_rev_at_epoch": 87962,
        "meta_bstar": 0.00052753226,
        "meta_mean_motion_dot": 1.653e-05,
        "meta_mean_motion_ddot": 0,
        "tle_line1": "1 33782U 93036X   25335.35548020  .00001653  00000+0  52753-3 0  9998",
        "tle_line2": "2 33782  74.0326 298.6004 0020250   5.4732 145.9177 14.40393615879628"
      },
      "geometry": {
        "type": "Point",
        "coordinates": [
          -63.03536687692726,
          0.3767530319811088
        ]
      }
    },
    {
      "type": "Feature",
      "properties": {
        "norad_id": 33785,
        "name": "COSMOS 2251 DEB",
        "group": "cosmos-2251-debris",
        "lat": 8.421608120616597,
        "lon": -102.06594731411207,
        "alt_km": 674.9787252112119,
        "timestamp": "2025-12-02T07:10:09.508760+00:00",
        "meta_object_name": "COSMOS 2251 DEB",
        "meta_object_id": "1993-036AA",
        "meta_epoch": "2025-12-01T17:52:08.905728",
        "meta_mean_motion": 14.70058621,
        "meta_eccentricity": 0.0021174,
        "meta_inclination": 73.8671,
        "meta_ra_of_asc_node": 81.4753,
        "meta_arg_of_pericenter": 24.1199,
        "meta_mean_anomaly": 95.2529,
        "meta_ephemeris_type": 0,
        "meta_classification_type": "U",
        "meta_norad_cat_id": 33785,
        "meta_element_set_no": 999,
        "meta_rev_at_epoch": 88345,
        "meta_bstar": 0.0019832,
        "meta_mean_motion_dot": 0.00011939,
        "meta_mean_motion_ddot": 0,
        "tle_line1": "1 33785U 93036AA  25335.74454752  .00011939  00000+0  19832-2 0  9990",
        "tle_line2": "2 33785  73.8671  81.4753 0021174  24.1199  95.2529 14.70058621883453"
      },
      "geometry": {
        "type": "Point",
        "coordinates": [
          -102.06594731411207,
          8.421608120616597
        ]
      }
    },
    {
      "type": "Feature",
      "properties": {
        "norad_id": 33789,
        "name": "COSMOS 2251 DEB",
        "group": "cosmos-2251-debris",
        "lat": 11.228981885922343,
        "lon": -78.12634435458361,
        "alt_km": 829.9044645955864,
        "timestamp": "2025-12-02T07:10:09.508770+00:00",
        "meta_object_name": "COSMOS 2251 DEB",
        "meta_object_id": "1993-036AE",
        "meta_epoch": "2025-12-01T20:33:09.134208",
        "meta_mean_motion": 13.88752958,
        "meta_eccentricity": 0.0240529,
        "meta_inclination": 74.0633,
        "meta_ra_of_asc_node": 105.876,
        "meta_arg_of_pericenter": 223.8944,
        "meta_mean_anomaly": 255.7837,
        "meta_ephemeris_type": 0,
        "meta_classification_type": "U",
        "meta_norad_cat_id": 33789,
        "meta_element_set_no": 999,
        "meta_rev_at_epoch": 84944,
        "meta_bstar": 0.00079729,
        "meta_mean_motion_dot": 1.188e-05,
        "meta_mean_motion_ddot": 0,
        "tle_line1": "1 33789U 93036AE  25335.85635572  .00001188  00000+0  79729-3 0  9994",
        "tle_line2": "2 33789  74.0633 105.8760 0240529 223.8944 255.7837 13.88752958849448"
      },
      "geometry": {
        "type": "Point",
        "coordinates": [
          -78.12634435458361,
          11.228981885922343
        ]
      }
    }
  ]
}